ONEWEB-0412             
1 50489U 21132W   25289.00972806  .00000067  00000+0  13720-3 0  9991
2 50489  87.9231  23.9463 0001466 108.0156 252.1136 13.18687531189475
ONEWEB-0413             
1 50490U 21132X   25288.25591088 -.00000192  00000+0 -51981-3 0  9990
2 50490  87.9230  24.1135 0001722 111.6863 248.4453 13.18686782189315
ONEWEB-0414             
1 50491U 21132Y   25288.99983674 -.00000185  00000+0 -50091-3 0  9991
2 50491  87.9231  23.9243 0001590  99.9175 260.2137 13.18685152189446
ONEWEB-0417             
1 50492U 21132Z   25288.24932033  .00000588  00000+0  14585-2 0  9995
2 50492  87.9230  24.1067 0001819  94.3533 265.7807 13.18684304189323
ONEWEB-0418             
1 50493U 21132AA  25288.71433835 -.00000303  00000+0 -80047-3 0  9998
2 50493  87.9231  23.9999 0001953  87.0834 273.0522 13.18685895189443
ONEWEB-0419             
1 50494U 21132AB  25288.96024448 -.00000401  00000+0 -10511-2 0  9999
2 50494  87.9232  23.9512 0002097  96.4364 263.7007 13.18685451189394
ONEWEB-0420             
1 50495U 21132AC  25288.31859939  .00000001  00000+0 -30646-4 0  9998
2 50495  87.9229  24.0893 0001778 113.0576 247.0744 13.18685941189309
ONEWEB-0421             
1 50496U 21132AD  25288.99487821 -.00000231  00000+0 -61895-3 0  9995
2 50496  87.9229  23.9490 0001446 100.8715 259.2580 13.18685177189430
ONEWEB-0424             
1 50497U 21132AE  25289.18292249  .00000139  00000+0  32062-3 0  9995
2 50497  87.9236  23.9073 0002191  99.3188 260.8192 13.18683445189488
ONEWEB-0426             
1 50498U 21132AF  25288.53633321  .00000064  00000+0  13037-3 0  9992
2 50498  87.9229  24.0264 0001399  80.7033 279.4257 13.18687578189341
ONEWEB-0427             
1 50499U 21132AG  25289.18126507  .00000064  00000+0  12938-3 0  9997
2 50499  87.9231  23.8879 0001892  94.8107 265.3241 13.18684334189456
ONEWEB-0429             
1 50500U 21132AH  25288.56106940 -.00000161  00000+0 -44114-3 0  9991
2 50500  87.9234  24.0417 0001865 106.1773 253.9564 13.18685917189346
ONEWEB-0430             
1 50501U 21132AJ  25289.00478602 -.00000286  00000+0 -75773-3 0  9992
2 50501  87.9231  23.9480 0002078 104.3090 255.8273 13.18684876189443
ONEWEB-0432             
1 50502U 21132AK  25289.18791716  .00000175  00000+0  41117-3 0  9996
2 50502  87.9227  23.8874 0002469  84.7112 275.4302 13.18669904189429
ONEWEB-0440             
1 50503U 21132AL  25289.02457061  .00000164  00000+0  38295-3 0  9993
2 50503  87.9238  23.9344 0001476 109.9158 250.2133 13.18683380189395
ONEWEB-0450             
1 50504U 21132AM  25289.01811583  .00000094  00000+0  20600-3 0  9999
2 50504  87.9230  23.9598 0001983 109.5817 250.5530 13.18683758189427
ONEWEB-0410             
1 51622U 22012A   25289.08250339 -.00000149  00000+0 -41646-3 0  9998
2 51622  87.9104  54.3818 0001997  53.3306 306.8009 13.17648420181554
