[{"OBJECT_NAME":"ONEWEB-0412","OBJECT_ID":"2021-132W","EPOCH":"2025-10-16T00:14:00.504384","MEAN_MOTION":13.18687531,"ECCENTRICITY":0.0001466,"INCLINATION":87.9231,"RA_OF_ASC_NODE":23.9463,"ARG_OF_PERICENTER":108.0156,"MEAN_ANOMALY":252.1136,"EPHEMERIS_TYPE":0,"CLASSIFICATION_TYPE":"U","NORAD_CAT_ID":50489,"ELEMENT_SET_NO":999,"REV_AT_EPOCH":18947,"BSTAR":0.0001372,"MEAN_MOTION_DOT":6.7e-7,"MEAN_MOTION_DDOT":0},{"OBJECT_NAME":"ONEWEB-0413","OBJECT_ID":"2021-132X","EPOCH":"2025-10-15T06:08:30.700032","MEAN_MOTION":13.18686782,"ECCENTRICITY":0.00017224,"INCLINATION":87.923,"RA_OF_ASC_NODE":24.1135,"ARG_OF_PERICENTER":111.6863,"MEAN_ANOMALY":248.4453,"EPHEMERIS_TYPE":0,"CLASSIFICATION_TYPE":"U","NORAD_CAT_ID":50490,"ELEMENT_SET_NO":999,"REV_AT_EPOCH":18931,"BSTAR":-0.00051980555,"MEAN_MOTION_DOT":-1.92e-6,"MEAN_MOTION_DDOT":0},{"OBJECT_NAME":"ONEWEB-0414","OBJECT_ID":"2021-132Y","EPOCH":"2025-10-15T23:59:45.894336","MEAN_MOTION":13.18685152,"ECCENTRICITY":0.000159,"INCLINATION":87.9231,"RA_OF_ASC_NODE":23.9243,"ARG_OF_PERICENTER":99.9175,"MEAN_ANOMALY":260.2137,"EPHEMERIS_TYPE":0,"CLASSIFICATION_TYPE":"U","NORAD_CAT_ID":50491,"ELEMENT_SET_NO":999,"REV_AT_EPOCH":18944,"BSTAR":-0.00050091,"MEAN_MOTION_DOT":-1.85e-6,"MEAN_MOTION_DDOT":0},{"OBJECT_NAME":"ONEWEB-0417","OBJECT_ID":"2021-132Z","EPOCH":"2025-10-15T05:59:01.276512","MEAN_MOTION":13.18684304,"ECCENTRICITY":0.0001819,"INCLINATION":87.923,"RA_OF_ASC_NODE":24.1067,"ARG_OF_PERICENTER":94.3533,"MEAN_ANOMALY":265.7807,"EPHEMERIS_TYPE":0,"CLASSIFICATION_TYPE":"U","NORAD_CAT_ID":50492,"ELEMENT_SET_NO":999,"REV_AT_EPOCH":18932,"BSTAR":0.001458462,"MEAN_MOTION_DOT":5.88e-6,"MEAN_MOTION_DDOT":0},{"OBJECT_NAME":"ONEWEB-0418","OBJECT_ID":"2021-132AA","EPOCH":"2025-10-15T17:08:38.833440","MEAN_MOTION":13.18685895,"ECCENTRICITY":0.00019536,"INCLINATION":87.9231,"RA_OF_ASC_NODE":23.9999,"ARG_OF_PERICENTER":87.0834,"MEAN_ANOMALY":273.0522,"EPHEMERIS_TYPE":0,"CLASSIFICATION_TYPE":"U","NORAD_CAT_ID":50493,"ELEMENT_SET_NO":999,"REV_AT_EPOCH":18944,"BSTAR":-0.00080047397,"MEAN_MOTION_DOT":-3.03e-6,"MEAN_MOTION_DDOT":0},{"OBJECT_NAME":"ONEWEB-0419","OBJECT_ID":"2021-132AB","EPOCH":"2025-10-15T23:02:45.123072","MEAN_MOTION":13.18685451,"ECCENTRICITY":0.0002097,"INCLINATION":87.9232,"RA_OF_ASC_NODE":23.9512,"ARG_OF_PERICENTER":96.4364,"MEAN_ANOMALY":263.7007,"EPHEMERIS_TYPE":0,"CLASSIFICATION_TYPE":"U","NORAD_CAT_ID":50494,"ELEMENT_SET_NO":999,"REV_AT_EPOCH":18939,"BSTAR":-0.0010511,"MEAN_MOTION_DOT":-4.01e-6,"MEAN_MOTION_DDOT":0},{"OBJECT_NAME":"ONEWEB-0420","OBJECT_ID":"2021-132AC","EPOCH":"2025-10-15T07:38:46.987296","MEAN_MOTION":13.18685941,"ECCENTRICITY":0.00017789,"INCLINATION":87.9229,"RA_OF_ASC_NODE":24.0893,"ARG_OF_PERICENTER":113.0576,"MEAN_ANOMALY":247.0744,"EPHEMERIS_TYPE":0,"CLASSIFICATION_TYPE":"U","NORAD_CAT_ID":50495,"ELEMENT_SET_NO":999,"REV_AT_EPOCH":18930,"BSTAR":-3.0645579e-5,"MEAN_MOTION_DOT":1.0e-8,"MEAN_MOTION_DDOT":0},{"OBJECT_NAME":"ONEWEB-0421","OBJECT_ID":"2021-132AD","EPOCH":"2025-10-15T23:52:37.477344","MEAN_MOTION":13.18685177,"ECCENTRICITY":0.0001446,"INCLINATION":87.9229,"RA_OF_ASC_NODE":23.949,"ARG_OF_PERICENTER":100.8715,"MEAN_ANOMALY":259.258,"EPHEMERIS_TYPE":0,"CLASSIFICATION_TYPE":"U","NORAD_CAT_ID":50496,"ELEMENT_SET_NO":999,"REV_AT_EPOCH":18943,"BSTAR":-0.00061895,"MEAN_MOTION_DOT":-2.31e-6,"MEAN_MOTION_DDOT":0},{"OBJECT_NAME":"ONEWEB-0424","OBJECT_ID":"2021-132AE","EPOCH":"2025-10-16T04:23:24.503136","MEAN_MOTION":13.18683445,"ECCENTRICITY":0.0002191,"INCLINATION":87.9236,"RA_OF_ASC_NODE":23.9073,"ARG_OF_PERICENTER":99.3188,"MEAN_ANOMALY":260.8192,"EPHEMERIS_TYPE":0,"CLASSIFICATION_TYPE":"U","NORAD_CAT_ID":50497,"ELEMENT_SET_NO":999,"REV_AT_EPOCH":18948,"BSTAR":0.00032062,"MEAN_MOTION_DOT":1.39e-6,"MEAN_MOTION_DDOT":0},{"OBJECT_NAME":"ONEWEB-0426","OBJECT_ID":"2021-132AF","EPOCH":"2025-10-15T12:52:19.189344","MEAN_MOTION":13.18687578,"ECCENTRICITY":0.0001399,"INCLINATION":87.9229,"RA_OF_ASC_NODE":24.0264,"ARG_OF_PERICENTER":80.7033,"MEAN_ANOMALY":279.4257,"EPHEMERIS_TYPE":0,"CLASSIFICATION_TYPE":"U","NORAD_CAT_ID":50498,"ELEMENT_SET_NO":999,"REV_AT_EPOCH":18934,"BSTAR":0.00013037,"MEAN_MOTION_DOT":6.4e-7,"MEAN_MOTION_DDOT":0},{"OBJECT_NAME":"ONEWEB-0427","OBJECT_ID":"2021-132AG","EPOCH":"2025-10-16T04:21:01.302048","MEAN_MOTION":13.18684334,"ECCENTRICITY":0.0001892,"INCLINATION":87.9231,"RA_OF_ASC_NODE":23.8879,"ARG_OF_PERICENTER":94.8107,"MEAN_ANOMALY":265.3241,"EPHEMERIS_TYPE":0,"CLASSIFICATION_TYPE":"U","NORAD_CAT_ID":50499,"ELEMENT_SET_NO":999,"REV_AT_EPOCH":18945,"BSTAR":0.00012938,"MEAN_MOTION_DOT":6.4e-7,"MEAN_MOTION_DDOT":0},{"OBJECT_NAME":"ONEWEB-0429","OBJECT_ID":"2021-132AH","EPOCH":"2025-10-15T13:27:56.396160","MEAN_MOTION":13.18685917,"ECCENTRICITY":0.0001865,"INCLINATION":87.9234,"RA_OF_ASC_NODE":24.0417,"ARG_OF_PERICENTER":106.1773,"MEAN_ANOMALY":253.9564,"EPHEMERIS_TYPE":0,"CLASSIFICATION_TYPE":"U","NORAD_CAT_ID":50500,"ELEMENT_SET_NO":999,"REV_AT_EPOCH":18934,"BSTAR":-0.00044114,"MEAN_MOTION_DOT":-1.61e-6,"MEAN_MOTION_DDOT":0},{"OBJECT_NAME":"ONEWEB-0430","OBJECT_ID":"2021-132AJ","EPOCH":"2025-10-16T00:06:53.512128","MEAN_MOTION":13.18684876,"ECCENTRICITY":0.0002078,"INCLINATION":87.9231,"RA_OF_ASC_NODE":23.948,"ARG_OF_PERICENTER":104.309,"MEAN_ANOMALY":255.8273,"EPHEMERIS_TYPE":0,"CLASSIFICATION_TYPE":"U","NORAD_CAT_ID":50501,"ELEMENT_SET_NO":999,"REV_AT_EPOCH":18944,"BSTAR":-0.00075773,"MEAN_MOTION_DOT":-2.86e-6,"MEAN_MOTION_DDOT":0},{"OBJECT_NAME":"ONEWEB-0432","OBJECT_ID":"2021-132AK","EPOCH":"2025-10-16T04:30:36.042624","MEAN_MOTION":13.18669904,"ECCENTRICITY":0.0002469,"INCLINATION":87.9227,"RA_OF_ASC_NODE":23.8874,"ARG_OF_PERICENTER":84.7112,"MEAN_ANOMALY":275.4302,"EPHEMERIS_TYPE":0,"CLASSIFICATION_TYPE":"U","NORAD_CAT_ID":50502,"ELEMENT_SET_NO":999,"REV_AT_EPOCH":18942,"BSTAR":0.00041117,"MEAN_MOTION_DOT":1.75e-6,"MEAN_MOTION_DDOT":0},{"OBJECT_NAME":"ONEWEB-0440","OBJECT_ID":"2021-132AL","EPOCH":"2025-10-16T00:35:22.900704","MEAN_MOTION":13.1868338,"ECCENTRICITY":0.0001476,"INCLINATION":87.9238,"RA_OF_ASC_NODE":23.9344,"ARG_OF_PERICENTER":109.9158,"MEAN_ANOMALY":250.2133,"EPHEMERIS_TYPE":0,"CLASSIFICATION_TYPE":"U","NORAD_CAT_ID":50503,"ELEMENT_SET_NO":999,"REV_AT_EPOCH":18939,"BSTAR":0.00038295,"MEAN_MOTION_DOT":1.64e-6,"MEAN_MOTION_DDOT":0},{"OBJECT_NAME":"ONEWEB-0450","OBJECT_ID":"2021-132AM","EPOCH":"2025-10-16T00:26:05.207712","MEAN_MOTION":13.18683758,"ECCENTRICITY":0.0001983,"INCLINATION":87.923,"RA_OF_ASC_NODE":23.9598,"ARG_OF_PERICENTER":109.5817,"MEAN_ANOMALY":250.553,"EPHEMERIS_TYPE":0,"CLASSIFICATION_TYPE":"U","NORAD_CAT_ID":50504,"ELEMENT_SET_NO":999,"REV_AT_EPOCH":18942,"BSTAR":0.000206,"MEAN_MOTION_DOT":9.4e-7,"MEAN_MOTION_DDOT":0},{"OBJECT_NAME":"ONEWEB-0410","OBJECT_ID":"2022-012A","EPOCH":"2025-10-16T01:58:48.292896","MEAN_MOTION":13.1764842,"ECCENTRICITY":0.0001997,"INCLINATION":87.9104,"RA_OF_ASC_NODE":54.3818,"ARG_OF_PERICENTER":53.3306,"MEAN_ANOMALY":306.8009,"EPHEMERIS_TYPE":0,"CLASSIFICATION_TYPE":"U","NORAD_CAT_ID":51622,"ELEMENT_SET_NO":999,"REV_AT_EPOCH":18155,"BSTAR":-0.00041646,"MEAN_MOTION_DOT":-1.49e-6,"MEAN_MOTION_DDOT":0}]
